[{"OBJECT_NAME":"STARLINK-5151","OBJECT_ID":"2022-136R","EPOCH":"2026-03-09T22:37:01.667424","MEAN_MOTION":15.08833331,"ECCENTRICITY":0.00011122,"INCLINATION":53.2171,"RA_OF_ASC_NODE":342.8858,"ARG_OF_PERICENTER":86.3379,"MEAN_ANOMALY":273.774,"EPHEMERIS_TYPE":0,"CLASSIFICATION_TYPE":"U","NORAD_CAT_ID":54066,"ELEMENT_SET_NO":999,"REV_AT_EPOCH":18688,"BSTAR":5.9404375e-5,"MEAN_MOTION_DOT":6.58e-6,"MEAN_MOTION_DDOT":0},{"OBJECT_NAME":"QPS-SAR-7 (TSUKUYOMI-II)","OBJECT_ID":"2024-066F","EPOCH":"2026-03-09T22:44:25.024704","MEAN_MOTION":15.07520552,"ECCENTRICITY":3.06e-5,"INCLINATION":45.6053,"RA_OF_ASC_NODE":45.6252,"ARG_OF_PERICENTER":310.671,"MEAN_ANOMALY":49.4148,"EPHEMERIS_TYPE":0,"CLASSIFICATION_TYPE":"U","NORAD_CAT_ID":59447,"ELEMENT_SET_NO":999,"REV_AT_EPOCH":10524,"BSTAR":0.00063712098,"MEAN_MOTION_DOT":9.59e-5,"MEAN_MOTION_DDOT":0}]
